KUIPER-00035            
1 63748U 25088AA  25260.89862886  .00003049  00000+0  42922-3 0  9998
2 63748  51.9004 158.1829 0004438 212.0276 148.0417 14.79890470 21920
KUIPER-00037            
1 63749U 25088AB  25260.90006222  .00001078  00000+0  17059-3 0  9998
2 63749  51.8995 157.1365 0006992 158.6552 201.4703 14.79932156 22721
KUIPER-00038            
1 63750U 25088AC  25260.91668981 -.00050475  00000+0 -65324-2 0  9991
2 63750  51.9005 141.4733 0006632 232.1533  79.7883 14.80608374  5077
KUIPER-00039            
1 64500U 25134A   25260.91668981 -.01804988  00000+0 -15311+0 0  9992
2 64500  51.8895 277.7692 0012386  83.1420  65.8144 15.01087394  5912
KUIPER-00040            
1 64501U 25134B   25260.47128950 -.00003901  00000+0 -48293-3 0  9995
2 64501  51.8978 290.2147 0020650  67.0030 293.3108 14.79715372 14265
KUIPER-00041            
1 64502U 25134C   25260.13257392  .00031216  00000+0  41028-2 0  9998
2 64502  51.9007 293.0737 0014102  53.2244 307.0011 14.79890026 14193
KUIPER-00042            
1 64503U 25134D   25260.47040699  .00002396  00000+0  34417-3 0  9998
2 64503  51.8978 287.5369 0014538  64.1951 296.0509 14.79806063 14308
KUIPER-00043            
1 64504U 25134E   25260.91668981 -.00859765  00000+0 -76366-1 0  9997
2 64504  51.9059 278.8985 0006777  57.5722 329.9058 14.98583452  5394
